MALLIGYONG-1            
1 58400U 23179A   24071.54814074  .00005778  00000+0  26065-3 0  9994
2 58400  97.4177 319.8550 0007980 239.1281 120.9170 15.21369367 16870
